SL-4 R/B                
1 39679U 14021B   25343.49413391  .00017264  00000+0  40923-3 0  9993
2 39679  51.6072  56.3661 0102076 134.4954 226.4429 15.36544600642397
ALOS-2                  
1 39766U 14029A   25343.49664674  .00004487  00000+0  60743-3 0  9995
2 39766  97.9228  78.3893 0001515 100.3180 259.8202 14.79462474623538
YAOGAN-29               
1 41038U 15069A   25343.51322184  .00001366  00000+0  17532-3 0  9996
2 41038  98.0217   6.6743 0000430 354.5602   5.5606 14.82879664542517
ASTRO-H (HITOMI)        
1 41337U 16012A   25343.05291826  .00004259  00000+0  25469-3 0  9996
2 41337  30.9983 221.1410 0009501 141.6857 218.4457 15.09316337538522
HXMT (HUIYAN)           
1 42758U 17034A   25343.56285539  .00005622  00000+0  29417-3 0  9991
2 42758  43.0126 157.2569 0031915  22.8992 337.3271 15.16204072468855
CZ-2C R/B               
1 43521U 18054D   25342.92823374  .00113010  00000+0  77893-3 0  9999
2 43521  35.1323 206.7289 0015953 103.6735 256.5775 15.73090809414453
SAOCOM 1A               
1 43641U 18076A   25343.49890425  .00000981  00000+0  12976-3 0  9993
2 43641  97.8843 167.9681 0001536  84.0164 276.1224 14.82153273388004
H-2A R/B                
1 43682U 18084L   25343.50305721  .00026585  00000+0  72197-3 0  9998
2 43682  98.8777 176.9117 0027650 337.7048  22.2988 15.37188706391904
SAOCOM 1B               
1 46265U 20059A   25343.53016010  .00000618  00000+0  84242-4 0  9990
2 46265  97.8837 167.0994 0001245  84.7567 275.3788 14.82153495285391
CSS (TIANHE)            
1 48274U 21035A   25343.44773791  .00031930  00000+0  40135-3 0  9996
2 48274  41.4681  36.6909 0008977   4.1981 355.8931 15.58957045263518
COSMOS 2550             
1 48865U 21056A   25343.33525535  .00000017  00000+0  63535-5 0  9997
2 48865  67.1455 314.2314 0008326 269.7288  90.2912 15.33838976249607
CZ-2C R/B               
1 52794U 22058K   25343.51591492  .00033033  00000+0  59513-3 0  9994
2 52794  50.1909  59.9873 0045698 185.0920 174.9589 15.48276110196139
