CCSDS_OMM_VERS = 2.0
CREATION_DATE  = 
ORIGINATOR     = 

OBJECT_NAME    = SL-4 R/B
OBJECT_ID      = 2014-021B
CENTER_NAME    = EARTH
REF_FRAME      = TEME
TIME_SYSTEM    = UTC
MEAN_ELEMENT_THEORY = SGP/SGP4

EPOCH          = 2025-12-09T11:51:33.169824
MEAN_MOTION    = 15.36544600
ECCENTRICITY   = .0102076
INCLINATION    = 51.6072
RA_OF_ASC_NODE = 56.3661
ARG_OF_PERICENTER = 134.4954
MEAN_ANOMALY   = 226.4429

EPHEMERIS_TYPE = 0
CLASSIFICATION_TYPE = U
NORAD_CAT_ID   = 39679
ELEMENT_SET_NO = 999
REV_AT_EPOCH   = 64239
BSTAR          = .40923E-3
MEAN_MOTION_DOT = .17264E-3
MEAN_MOTION_DDOT = 0

CCSDS_OMM_VERS = 2.0
CREATION_DATE  = 
ORIGINATOR     = 

OBJECT_NAME    = ALOS-2
OBJECT_ID      = 2014-029A
CENTER_NAME    = EARTH
REF_FRAME      = TEME
TIME_SYSTEM    = UTC
MEAN_ELEMENT_THEORY = SGP/SGP4

EPOCH          = 2025-12-09T11:55:10.278336
MEAN_MOTION    = 14.79462474
ECCENTRICITY   = .0001515
INCLINATION    = 97.9228
RA_OF_ASC_NODE = 78.3893
ARG_OF_PERICENTER = 100.3180
MEAN_ANOMALY   = 259.8202

EPHEMERIS_TYPE = 0
CLASSIFICATION_TYPE = U
NORAD_CAT_ID   = 39766
ELEMENT_SET_NO = 999
REV_AT_EPOCH   = 62353
BSTAR          = .60743E-3
MEAN_MOTION_DOT = .4487E-4
MEAN_MOTION_DDOT = 0

CCSDS_OMM_VERS = 2.0
CREATION_DATE  = 
ORIGINATOR     = 

OBJECT_NAME    = YAOGAN-29
OBJECT_ID      = 2015-069A
CENTER_NAME    = EARTH
REF_FRAME      = TEME
TIME_SYSTEM    = UTC
MEAN_ELEMENT_THEORY = SGP/SGP4

EPOCH          = 2025-12-09T12:19:02.366976
MEAN_MOTION    = 14.82879664
ECCENTRICITY   = .000043
INCLINATION    = 98.0217
RA_OF_ASC_NODE = 6.6743
ARG_OF_PERICENTER = 354.5602
MEAN_ANOMALY   = 5.5606

EPHEMERIS_TYPE = 0
CLASSIFICATION_TYPE = U
NORAD_CAT_ID   = 41038
ELEMENT_SET_NO = 999
REV_AT_EPOCH   = 54251
BSTAR          = .17532E-3
MEAN_MOTION_DOT = .1366E-4
MEAN_MOTION_DDOT = 0

CCSDS_OMM_VERS = 2.0
CREATION_DATE  = 
ORIGINATOR     = 

OBJECT_NAME    = ASTRO-H (HITOMI)
OBJECT_ID      = 2016-012A
CENTER_NAME    = EARTH
REF_FRAME      = TEME
TIME_SYSTEM    = UTC
MEAN_ELEMENT_THEORY = SGP/SGP4

EPOCH          = 2025-12-09T01:16:12.137664
MEAN_MOTION    = 15.09316337
ECCENTRICITY   = .00095014
INCLINATION    = 30.9983
RA_OF_ASC_NODE = 221.1410
ARG_OF_PERICENTER = 141.6857
MEAN_ANOMALY   = 218.4457

EPHEMERIS_TYPE = 0
CLASSIFICATION_TYPE = U
NORAD_CAT_ID   = 41337
ELEMENT_SET_NO = 999
REV_AT_EPOCH   = 53852
BSTAR          = .25469379E-3
MEAN_MOTION_DOT = .4259E-4
MEAN_MOTION_DDOT = 0

CCSDS_OMM_VERS = 2.0
CREATION_DATE  = 
ORIGINATOR     = 

OBJECT_NAME    = HXMT (HUIYAN)
OBJECT_ID      = 2017-034A
CENTER_NAME    = EARTH
REF_FRAME      = TEME
TIME_SYSTEM    = UTC
MEAN_ELEMENT_THEORY = SGP/SGP4

EPOCH          = 2025-12-09T13:30:30.705696
MEAN_MOTION    = 15.16204072
ECCENTRICITY   = .0031915
INCLINATION    = 43.0126
RA_OF_ASC_NODE = 157.2569
ARG_OF_PERICENTER = 22.8992
MEAN_ANOMALY   = 337.3271

EPHEMERIS_TYPE = 0
CLASSIFICATION_TYPE = U
NORAD_CAT_ID   = 42758
ELEMENT_SET_NO = 999
REV_AT_EPOCH   = 46885
BSTAR          = .29417E-3
MEAN_MOTION_DOT = .5622E-4
MEAN_MOTION_DDOT = 0

CCSDS_OMM_VERS = 2.0
CREATION_DATE  = 
ORIGINATOR     = 

OBJECT_NAME    = CZ-2C R/B
OBJECT_ID      = 2018-054D
CENTER_NAME    = EARTH
REF_FRAME      = TEME
TIME_SYSTEM    = UTC
MEAN_ELEMENT_THEORY = SGP/SGP4

EPOCH          = 2025-12-08T22:16:39.395136
MEAN_MOTION    = 15.73090809
ECCENTRICITY   = .0015953
INCLINATION    = 35.1323
RA_OF_ASC_NODE = 206.7289
ARG_OF_PERICENTER = 103.6735
MEAN_ANOMALY   = 256.5775

EPHEMERIS_TYPE = 0
CLASSIFICATION_TYPE = U
NORAD_CAT_ID   = 43521
ELEMENT_SET_NO = 999
REV_AT_EPOCH   = 41445
BSTAR          = .77893E-3
MEAN_MOTION_DOT = .11301E-2
MEAN_MOTION_DDOT = 0

CCSDS_OMM_VERS = 2.0
CREATION_DATE  = 
ORIGINATOR     = 

OBJECT_NAME    = SAOCOM 1A
OBJECT_ID      = 2018-076A
CENTER_NAME    = EARTH
REF_FRAME      = TEME
TIME_SYSTEM    = UTC
MEAN_ELEMENT_THEORY = SGP/SGP4

EPOCH          = 2025-12-09T11:58:25.327200
MEAN_MOTION    = 14.82153273
ECCENTRICITY   = .0001536
INCLINATION    = 97.8843
RA_OF_ASC_NODE = 167.9681
ARG_OF_PERICENTER = 84.0164
MEAN_ANOMALY   = 276.1224

EPHEMERIS_TYPE = 0
CLASSIFICATION_TYPE = U
NORAD_CAT_ID   = 43641
ELEMENT_SET_NO = 999
REV_AT_EPOCH   = 38800
BSTAR          = .12976E-3
MEAN_MOTION_DOT = .981E-5
MEAN_MOTION_DDOT = 0

CCSDS_OMM_VERS = 2.0
CREATION_DATE  = 
ORIGINATOR     = 

OBJECT_NAME    = H-2A R/B
OBJECT_ID      = 2018-084L
CENTER_NAME    = EARTH
REF_FRAME      = TEME
TIME_SYSTEM    = UTC
MEAN_ELEMENT_THEORY = SGP/SGP4

EPOCH          = 2025-12-09T12:04:24.142944
MEAN_MOTION    = 15.37188706
ECCENTRICITY   = .002765
INCLINATION    = 98.8777
RA_OF_ASC_NODE = 176.9117
ARG_OF_PERICENTER = 337.7048
MEAN_ANOMALY   = 22.2988

EPHEMERIS_TYPE = 0
CLASSIFICATION_TYPE = U
NORAD_CAT_ID   = 43682
ELEMENT_SET_NO = 999
REV_AT_EPOCH   = 39190
BSTAR          = .72197E-3
MEAN_MOTION_DOT = .26585E-3
MEAN_MOTION_DDOT = 0

CCSDS_OMM_VERS = 2.0
CREATION_DATE  = 
ORIGINATOR     = 

OBJECT_NAME    = SAOCOM 1B
OBJECT_ID      = 2020-059A
CENTER_NAME    = EARTH
REF_FRAME      = TEME
TIME_SYSTEM    = UTC
MEAN_ELEMENT_THEORY = SGP/SGP4

EPOCH          = 2025-12-09T12:43:25.832640
MEAN_MOTION    = 14.82153495
ECCENTRICITY   = .0001245
INCLINATION    = 97.8837
RA_OF_ASC_NODE = 167.0994
ARG_OF_PERICENTER = 84.7567
MEAN_ANOMALY   = 275.3788

EPHEMERIS_TYPE = 0
CLASSIFICATION_TYPE = U
NORAD_CAT_ID   = 46265
ELEMENT_SET_NO = 999
REV_AT_EPOCH   = 28539
BSTAR          = .84242E-4
MEAN_MOTION_DOT = .618E-5
MEAN_MOTION_DDOT = 0

CCSDS_OMM_VERS = 2.0
CREATION_DATE  = 
ORIGINATOR     = 

OBJECT_NAME    = CSS (TIANHE)
OBJECT_ID      = 2021-035A
CENTER_NAME    = EARTH
REF_FRAME      = TEME
TIME_SYSTEM    = UTC
MEAN_ELEMENT_THEORY = SGP/SGP4

EPOCH          = 2025-12-09T10:44:44.555424
MEAN_MOTION    = 15.58957045
ECCENTRICITY   = .0008977
INCLINATION    = 41.4681
RA_OF_ASC_NODE = 36.6909
ARG_OF_PERICENTER = 4.1981
MEAN_ANOMALY   = 355.8931

EPHEMERIS_TYPE = 0
CLASSIFICATION_TYPE = U
NORAD_CAT_ID   = 48274
ELEMENT_SET_NO = 999
REV_AT_EPOCH   = 26351
BSTAR          = .40135E-3
MEAN_MOTION_DOT = .3193E-3
MEAN_MOTION_DDOT = 0

CCSDS_OMM_VERS = 2.0
CREATION_DATE  = 
ORIGINATOR     = 

OBJECT_NAME    = COSMOS 2550
OBJECT_ID      = 2021-056A
CENTER_NAME    = EARTH
REF_FRAME      = TEME
TIME_SYSTEM    = UTC
MEAN_ELEMENT_THEORY = SGP/SGP4

EPOCH          = 2025-12-09T08:02:46.062240
MEAN_MOTION    = 15.33838976
ECCENTRICITY   = .0008326
INCLINATION    = 67.1455
RA_OF_ASC_NODE = 314.2314
ARG_OF_PERICENTER = 269.7288
MEAN_ANOMALY   = 90.2912

EPHEMERIS_TYPE = 0
CLASSIFICATION_TYPE = U
NORAD_CAT_ID   = 48865
ELEMENT_SET_NO = 999
REV_AT_EPOCH   = 24960
BSTAR          = .63535E-5
MEAN_MOTION_DOT = .17E-6
MEAN_MOTION_DDOT = 0

CCSDS_OMM_VERS = 2.0
CREATION_DATE  = 
ORIGINATOR     = 

OBJECT_NAME    = CZ-2C R/B
OBJECT_ID      = 2022-058K
CENTER_NAME    = EARTH
REF_FRAME      = TEME
TIME_SYSTEM    = UTC
MEAN_ELEMENT_THEORY = SGP/SGP4

EPOCH          = 2025-12-09T12:22:55.049088
MEAN_MOTION    = 15.48276110
ECCENTRICITY   = .0045698
INCLINATION    = 50.1909
RA_OF_ASC_NODE = 59.9873
ARG_OF_PERICENTER = 185.0920
MEAN_ANOMALY   = 174.9589

EPHEMERIS_TYPE = 0
CLASSIFICATION_TYPE = U
NORAD_CAT_ID   = 52794
ELEMENT_SET_NO = 999
REV_AT_EPOCH   = 19613
BSTAR          = .59513E-3
MEAN_MOTION_DOT = .33033E-3
MEAN_MOTION_DDOT = 0

